{
  "links" : {
    "next" : "https://api.nasa.gov/neo/rest/v1/feed?start_date=2007-08-23&end_date=2007-08-23&detailed=true&api_key=t0TVs3DtDT2H8Oy2Zy8m2eVrNsAVKAexjcZXUckd",
    "prev" : "https://api.nasa.gov/neo/rest/v1/feed?start_date=2007-08-21&end_date=2007-08-21&detailed=true&api_key=t0TVs3DtDT2H8Oy2Zy8m2eVrNsAVKAexjcZXUckd",
    "self" : "https://api.nasa.gov/neo/rest/v1/feed?start_date=2007-08-22&end_date=2007-08-22&detailed=true&api_key=t0TVs3DtDT2H8Oy2Zy8m2eVrNsAVKAexjcZXUckd"
  },
  "element_count" : 9,
  "near_earth_objects" : {
    "2007-08-22" : [ {
      "links" : {
        "self" : "https://api.nasa.gov/neo/rest/v1/neo/3685807?api_key=t0TVs3DtDT2H8Oy2Zy8m2eVrNsAVKAexjcZXUckd"
      },
      "neo_reference_id" : "3685807",
      "name" : "(2014 QW432)",
      "nasa_jpl_url" : "http://ssd.jpl.nasa.gov/sbdb.cgi?sstr=3685807",
      "absolute_magnitude_h" : 21.3,
      "estimated_diameter" : {
        "kilometers" : {
          "estimated_diameter_min" : 0.1460679643,
          "estimated_diameter_max" : 0.3266178974
        },
        "meters" : {
          "estimated_diameter_min" : 146.0679642714,
          "estimated_diameter_max" : 326.6178974458
        },
        "miles" : {
          "estimated_diameter_min" : 0.090762397,
          "estimated_diameter_max" : 0.2029508896
        },
        "feet" : {
          "estimated_diameter_min" : 479.2256199,
          "estimated_diameter_max" : 1071.581062656
        }
      },
      "is_potentially_hazardous_asteroid" : false,
      "close_approach_data" : [ {
        "close_approach_date" : "2007-08-22",
        "epoch_date_close_approach" : 1187766000000,
        "relative_velocity" : {
          "kilometers_per_second" : "13.7166717956",
          "kilometers_per_hour" : "49380.0184640722",
          "miles_per_hour" : "30682.8231395231"
        },
        "miss_distance" : {
          "astronomical" : "0.3841451637",
          "lunar" : "149.4324645996",
          "kilometers" : "57467300",
          "miles" : "35708524"
        },
        "orbiting_body" : "Earth"
      } ],
      "orbital_data" : {
        "orbit_id" : "7",
        "orbit_determination_date" : "2017-04-06 08:38:55",
        "orbit_uncertainty" : "6",
        "minimum_orbit_intersection" : ".210535",
        "jupiter_tisserand_invariant" : "5.051",
        "epoch_osculation" : "2458000.5",
        "eccentricity" : ".04284156975301039",
        "semi_major_axis" : "1.246462073525433",
        "inclination" : "26.32203991535576",
        "ascending_node_longitude" : "345.550083819674",
        "orbital_period" : "508.2963953044151",
        "perihelion_distance" : "1.193061681658012",
        "perihelion_argument" : "214.7931649349263",
        "aphelion_distance" : "1.299862465392855",
        "perihelion_time" : "2458241.127423039116",
        "mean_anomaly" : "189.5760640950402",
        "mean_motion" : ".7082481861481598",
        "equinox" : "J2000"
      }
    }, {
      "links" : {
        "self" : "https://api.nasa.gov/neo/rest/v1/neo/3752782?api_key=t0TVs3DtDT2H8Oy2Zy8m2eVrNsAVKAexjcZXUckd"
      },
      "neo_reference_id" : "3752782",
      "name" : "(2016 JA6)",
      "nasa_jpl_url" : "http://ssd.jpl.nasa.gov/sbdb.cgi?sstr=3752782",
      "absolute_magnitude_h" : 26.3,
      "estimated_diameter" : {
        "kilometers" : {
          "estimated_diameter_min" : 0.0146067964,
          "estimated_diameter_max" : 0.0326617897
        },
        "meters" : {
          "estimated_diameter_min" : 14.6067964271,
          "estimated_diameter_max" : 32.6617897446
        },
        "miles" : {
          "estimated_diameter_min" : 0.0090762397,
          "estimated_diameter_max" : 0.020295089
        },
        "feet" : {
          "estimated_diameter_min" : 47.92256199,
          "estimated_diameter_max" : 107.1581062656
        }
      },
      "is_potentially_hazardous_asteroid" : false,
      "close_approach_data" : [ {
        "close_approach_date" : "2007-08-22",
        "epoch_date_close_approach" : 1187766000000,
        "relative_velocity" : {
          "kilometers_per_second" : "8.0421878467",
          "kilometers_per_hour" : "28951.8762481285",
          "miles_per_hour" : "17989.5699942885"
        },
        "miss_distance" : {
          "astronomical" : "0.4966126117",
          "lunar" : "193.1823120117",
          "kilometers" : "74292192",
          "miles" : "46163028"
        },
        "orbiting_body" : "Earth"
      } ],
      "orbital_data" : {
        "orbit_id" : "16",
        "orbit_determination_date" : "2017-04-06 08:26:09",
        "orbit_uncertainty" : "6",
        "minimum_orbit_intersection" : ".000822865",
        "jupiter_tisserand_invariant" : "5.629",
        "epoch_osculation" : "2458000.5",
        "eccentricity" : ".2762164774225852",
        "semi_major_axis" : "1.087621882655883",
        "inclination" : "16.0101129839823",
        "ascending_node_longitude" : "222.229441548185",
        "orbital_period" : "414.3003805415065",
        "perihelion_distance" : ".7872027974609547",
        "perihelion_argument" : "269.2977677875609",
        "aphelion_distance" : "1.388040967850811",
        "perihelion_time" : "2457856.547135935211",
        "mean_anomaly" : "125.085646785044",
        "mean_motion" : ".8689347558152523",
        "equinox" : "J2000"
      }
    }, {
      "links" : {
        "self" : "https://api.nasa.gov/neo/rest/v1/neo/3770280?api_key=t0TVs3DtDT2H8Oy2Zy8m2eVrNsAVKAexjcZXUckd"
      },
      "neo_reference_id" : "3770280",
      "name" : "(2017 EA)",
      "nasa_jpl_url" : "http://ssd.jpl.nasa.gov/sbdb.cgi?sstr=3770280",
      "absolute_magnitude_h" : 30.8,
      "estimated_diameter" : {
        "kilometers" : {
          "estimated_diameter_min" : 0.0018388867,
          "estimated_diameter_max" : 0.0041118757
        },
        "meters" : {
          "estimated_diameter_min" : 1.8388867207,
          "estimated_diameter_max" : 4.1118757104
        },
        "miles" : {
          "estimated_diameter_min" : 0.0011426309,
          "estimated_diameter_max" : 0.0025550003
        },
        "feet" : {
          "estimated_diameter_min" : 6.0330931087,
          "estimated_diameter_max" : 13.4904063057
        }
      },
      "is_potentially_hazardous_asteroid" : false,
      "close_approach_data" : [ {
        "close_approach_date" : "2007-08-22",
        "epoch_date_close_approach" : 1187766000000,
        "relative_velocity" : {
          "kilometers_per_second" : "31.8521652403",
          "kilometers_per_hour" : "114667.7948649083",
          "miles_per_hour" : "71250.1084259204"
        },
        "miss_distance" : {
          "astronomical" : "0.4889197114",
          "lunar" : "190.1897583008",
          "kilometers" : "73141344",
          "miles" : "45447928"
        },
        "orbiting_body" : "Earth"
      } ],
      "orbital_data" : {
        "orbit_id" : "2",
        "orbit_determination_date" : "2017-04-06 08:19:47",
        "orbit_uncertainty" : "6",
        "minimum_orbit_intersection" : ".000118866",
        "jupiter_tisserand_invariant" : "3.964",
        "epoch_osculation" : "2458000.5",
        "eccentricity" : ".6003001023417441",
        "semi_major_axis" : "1.70687396963693",
        "inclination" : "1.372379455152367",
        "ascending_node_longitude" : "161.8499822929697",
        "orbital_period" : "814.5178567928164",
        "perihelion_distance" : ".6822373509794217",
        "perihelion_argument" : "80.37433943854784",
        "aphelion_distance" : "2.731510588294438",
        "perihelion_time" : "2457862.778784058510",
        "mean_anomaly" : "60.8699211754024",
        "mean_motion" : ".4419792604885406",
        "equinox" : "J2000"
      }
    } ]
  }
}